start=new Date('2021-11-14T00:00:00.000Z').valueOf();
sats=[{"APOAPSIS":"416.444","NORAD_CAT_ID":"47420","INCLINATION":"97.4971","MEAN_MOTION_DDOT":"0.0000000000000","BSTAR":"0.01928500000000","REV_AT_EPOCH":"360","GP_ID":"189712366","TLE_LINE2":"2 47420  97.4971  17.6677 0001626 214.9407 258.2708 15.50475210  3603","PERIOD":"92.875","ELEMENT_SET_NO":"999","ARG_OF_PERICENTER":"214.9407","MEAN_MOTION_DOT":"0.01206625","OBJECT_TYPE":"PAYLOAD","FILE":"3214514","SITE":"AFETR","REF_FRAME":"TEME","ECCENTRICITY":"0.00016260","RA_OF_ASC_NODE":"17.6677","TLE_LINE1":"1 47420U 21006H   21317.91667824  .01206625  00000-0  19285-1 0  9991","CLASSIFICATION_TYPE":"U","MEAN_ANOMALY":"258.2708","EPOCH":"2021-11-13T22:00:00.999936","PERIAPSIS":"414.235","OBJECT_NAME":"STARLINK-2206","SEMIMAJOR_AXIS":"6793.475","RCS_SIZE":"LARGE","LAUNCH_DATE":"2021-01-24","OBJECT_ID":"2021-006H","MEAN_MOTION":"15.50475210","COUNTRY_CODE":"US","EPHEMERIS_TYPE":"0","MEAN_ELEMENT_THEORY":"SGP4","CENTER_NAME":"EARTH","DECAY_DATE":null,"TIME_SYSTEM":"UTC"},{"REV_AT_EPOCH":"360","BSTAR":"0.02538100000000","MEAN_MOTION_DDOT":"0.0000000000000","APOAPSIS":"429.771","INCLINATION":"97.4950","NORAD_CAT_ID":"47421","OBJECT_TYPE":"PAYLOAD","MEAN_MOTION_DOT":"0.01355720","ARG_OF_PERICENTER":"205.6360","ELEMENT_SET_NO":"999","TLE_LINE2":"2 47421  97.4950  17.6589 0002016 205.6360 250.8684 15.46015310  3609","PERIOD":"93.143","GP_ID":"189712617","RA_OF_ASC_NODE":"17.6589","ECCENTRICITY":"0.00020160","REF_FRAME":"TEME","SITE":"AFETR","FILE":"3214514","EPOCH":"2021-11-13T22:00:00.999936","MEAN_ANOMALY":"250.8684","CLASSIFICATION_TYPE":"U","TLE_LINE1":"1 47421U 21006J   21317.91667824  .01355720  00000-0  25381-1 0  9997","PERIAPSIS":"427.026","LAUNCH_DATE":"2021-01-24","SEMIMAJOR_AXIS":"6806.533","RCS_SIZE":"LARGE","OBJECT_NAME":"STARLINK-2207","TIME_SYSTEM":"UTC","DECAY_DATE":null,"CENTER_NAME":"EARTH","MEAN_ELEMENT_THEORY":"SGP4","MEAN_MOTION":"15.46015310","COUNTRY_CODE":"US","EPHEMERIS_TYPE":"0","OBJECT_ID":"2021-006J"},{"PERIAPSIS":"472.930","MEAN_ANOMALY":"177.3696","CLASSIFICATION_TYPE":"U","TLE_LINE1":"1 47422U 21006K   21317.91667824  .00838159  00000-0  26608-1 0  9992","EPOCH":"2021-11-13T22:00:00.999936","MEAN_ELEMENT_THEORY":"SGP4","COUNTRY_CODE":"US","MEAN_MOTION":"15.30037111","EPHEMERIS_TYPE":"0","OBJECT_ID":"2021-006K","TIME_SYSTEM":"UTC","DECAY_DATE":null,"CENTER_NAME":"EARTH","RCS_SIZE":"LARGE","SEMIMAJOR_AXIS":"6853.838","OBJECT_NAME":"STARLINK-2208","LAUNCH_DATE":"2021-01-24","MEAN_MOTION_DDOT":"0.0000000000000","APOAPSIS":"478.477","NORAD_CAT_ID":"47422","INCLINATION":"97.4838","REV_AT_EPOCH":"360","BSTAR":"0.02660800000000","REF_FRAME":"TEME","FILE":"3214514","SITE":"AFETR","RA_OF_ASC_NODE":"17.3458","ECCENTRICITY":"0.00040470","GP_ID":"189711365","OBJECT_TYPE":"PAYLOAD","MEAN_MOTION_DOT":"0.00838159","ELEMENT_SET_NO":"999","ARG_OF_PERICENTER":"240.3207","PERIOD":"94.115","TLE_LINE2":"2 47422  97.4838  17.3458 0004047 240.3207 177.3696 15.30037111  3601"},{"EPOCH":"2021-11-13T13:12:04.114368","TLE_LINE1":"1 47548U 21009A   21317.55004762 -.00001491  00000-0 -81215-4 0  9991","CLASSIFICATION_TYPE":"U","MEAN_ANOMALY":"296.0954","PERIAPSIS":"545.935","LAUNCH_DATE":"2021-02-04","OBJECT_NAME":"STARLINK-1782","RCS_SIZE":"LARGE","SEMIMAJOR_AXIS":"6925.343","CENTER_NAME":"EARTH","DECAY_DATE":null,"TIME_SYSTEM":"UTC","OBJECT_ID":"2021-009A","COUNTRY_CODE":"US","MEAN_MOTION":"15.06401709","EPHEMERIS_TYPE":"0","MEAN_ELEMENT_THEORY":"SGP4","BSTAR":"-0.00008121500000","REV_AT_EPOCH":"4322","NORAD_CAT_ID":"47548","APOAPSIS":"548.482","INCLINATION":"53.0564","MEAN_MOTION_DDOT":"0.0000000000000","TLE_LINE2":"2 47548  53.0564 251.6808 0001839  64.0224 296.0954 15.06401709 43221","PERIOD":"95.592","ELEMENT_SET_NO":"999","ARG_OF_PERICENTER":"64.0224","OBJECT_TYPE":"PAYLOAD","MEAN_MOTION_DOT":"-0.00001491","GP_ID":"189677971","ECCENTRICITY":"0.00018390","RA_OF_ASC_NODE":"251.6808","FILE":"3214083","SITE":"AFETR","REF_FRAME":"TEME"},{"REV_AT_EPOCH":"4326","BSTAR":"0.00003909800000","MEAN_MOTION_DDOT":"0.0000000000000","APOAPSIS":"548.510","NORAD_CAT_ID":"47549","INCLINATION":"53.0551","MEAN_MOTION_DOT":"0.00000301","OBJECT_TYPE":"PAYLOAD","ELEMENT_SET_NO":"999","ARG_OF_PERICENTER":"62.3376","PERIOD":"95.592","TLE_LINE2":"2 47549  53.0551 250.4959 0001851  62.3376 297.7801 15.06395344 43265","GP_ID":"189712633","ECCENTRICITY":"0.00018510","RA_OF_ASC_NODE":"250.4959","REF_FRAME":"TEME","SITE":"AFETR","FILE":"3214514","EPOCH":"2021-11-13T19:28:54.850944","MEAN_ANOMALY":"297.7801","CLASSIFICATION_TYPE":"U","TLE_LINE1":"1 47549U 21009B   21317.81174596  .00000301  00000-0  39098-4 0  9993","PERIAPSIS":"545.946","LAUNCH_DATE":"2021-02-04","SEMIMAJOR_AXIS":"6925.363","RCS_SIZE":"LARGE","OBJECT_NAME":"STARLINK-1806","TIME_SYSTEM":"UTC","DECAY_DATE":null,"CENTER_NAME":"EARTH","MEAN_ELEMENT_THEORY":"SGP4","COUNTRY_CODE":"US","EPHEMERIS_TYPE":"0","MEAN_MOTION":"15.06395344","OBJECT_ID":"2021-009B"},{"INCLINATION":"53.0554","APOAPSIS":"548.471","NORAD_CAT_ID":"47550","MEAN_MOTION_DDOT":"0.0000000000000","BSTAR":"0.00005641900000","REV_AT_EPOCH":"4340","REF_FRAME":"TEME","FILE":"3214514","SITE":"AFETR","RA_OF_ASC_NODE":"240.4439","ECCENTRICITY":"0.00017820","GP_ID":"189711381","ELEMENT_SET_NO":"999","ARG_OF_PERICENTER":"65.7067","TLE_LINE2":"2 47550  53.0554 240.4439 0001782  65.7067 294.4108 15.06392536 43409","PERIOD":"95.593","OBJECT_TYPE":"PAYLOAD","MEAN_MOTION_DOT":"0.00000559","PERIAPSIS":"546.002","CLASSIFICATION_TYPE":"U","TLE_LINE1":"1 47550U 21009C   21317.82372817  .00000559  00000-0  56419-4 0  9993","MEAN_ANOMALY":"294.4108","EPOCH":"2021-11-13T19:46:10.113888","OBJECT_ID":"2021-009C","MEAN_ELEMENT_THEORY":"SGP4","MEAN_MOTION":"15.06392536","COUNTRY_CODE":"US","EPHEMERIS_TYPE":"0","DECAY_DATE":null,"CENTER_NAME":"EARTH","TIME_SYSTEM":"UTC","OBJECT_NAME":"STARLINK-1909","SEMIMAJOR_AXIS":"6925.371","RCS_SIZE":"LARGE","LAUNCH_DATE":"2021-02-04"},{"PERIAPSIS":"546.140","MEAN_ANOMALY":"291.9252","CLASSIFICATION_TYPE":"U","TLE_LINE1":"1 47551U 21009D   21317.55280564  .00000201  00000-0  32423-4 0  9994","EPOCH":"2021-11-13T13:16:02.407296","MEAN_ELEMENT_THEORY":"SGP4","EPHEMERIS_TYPE":"0","COUNTRY_CODE":"US","MEAN_MOTION":"15.06399960","OBJECT_ID":"2021-009D","TIME_SYSTEM":"UTC","DECAY_DATE":null,"CENTER_NAME":"EARTH","RCS_SIZE":"LARGE","SEMIMAJOR_AXIS":"6925.349","OBJECT_NAME":"STARLINK-1938","LAUNCH_DATE":"2021-02-04","MEAN_MOTION_DDOT":"0.0000000000000","APOAPSIS":"548.287","NORAD_CAT_ID":"47551","INCLINATION":"53.0557","REV_AT_EPOCH":"4308","BSTAR":"0.00003242300000","REF_FRAME":"TEME","SITE":"AFETR","FILE":"3214083","RA_OF_ASC_NODE":"261.6533","ECCENTRICITY":"0.00015500","GP_ID":"189679723","MEAN_MOTION_DOT":"0.00000201","OBJECT_TYPE":"PAYLOAD","ARG_OF_PERICENTER":"68.1902","ELEMENT_SET_NO":"999","TLE_LINE2":"2 47551  53.0557 261.6533 0001550  68.1902 291.9252 15.06399960 43085","PERIOD":"95.592"},{"TLE_LINE1":"1 47552U 21009E   21317.75645726 -.00000630  00000-0 -23395-4 0  9998","CLASSIFICATION_TYPE":"U","MEAN_ANOMALY":"295.1419","EPOCH":"2021-11-13T18:09:17.907264","PERIAPSIS":"546.076","OBJECT_NAME":"STARLINK-1940","SEMIMAJOR_AXIS":"6925.393","RCS_SIZE":"LARGE","LAUNCH_DATE":"2021-02-04","OBJECT_ID":"2021-009E","EPHEMERIS_TYPE":"0","COUNTRY_CODE":"US","MEAN_MOTION":"15.06385599","MEAN_ELEMENT_THEORY":"SGP4","CENTER_NAME":"EARTH","DECAY_DATE":null,"TIME_SYSTEM":"UTC","NORAD_CAT_ID":"47552","APOAPSIS":"548.439","INCLINATION":"53.0545","MEAN_MOTION_DDOT":"0.0000000000000","BSTAR":"-0.00002339500000","REV_AT_EPOCH":"4325","GP_ID":"189712883","PERIOD":"95.593","TLE_LINE2":"2 47552  53.0545 250.7520 0001706  64.9747 295.1419 15.06385599 43255","ELEMENT_SET_NO":"999","ARG_OF_PERICENTER":"64.9747","MEAN_MOTION_DOT":"-0.00000630","OBJECT_TYPE":"PAYLOAD","FILE":"3214514","SITE":"AFETR","REF_FRAME":"TEME","ECCENTRICITY":"0.00017060","RA_OF_ASC_NODE":"250.7520"},{"NORAD_CAT_ID":"47553","APOAPSIS":"551.607","INCLINATION":"53.0562","MEAN_MOTION_DDOT":"0.0000000000000","BSTAR":"0.00004273800000","REV_AT_EPOCH":"4322","GP_ID":"189678222","TLE_LINE2":"2 47553  53.0562 251.7168 0006364 333.1237  26.9421 15.06404561 43225","PERIOD":"95.592","ELEMENT_SET_NO":"999","ARG_OF_PERICENTER":"333.1237","MEAN_MOTION_DOT":"0.00000353","OBJECT_TYPE":"PAYLOAD","FILE":"3214083","SITE":"AFETR","REF_FRAME":"TEME","RA_OF_ASC_NODE":"251.7168","ECCENTRICITY":"0.00063640","TLE_LINE1":"1 47553U 21009F   21317.54265585  .00000353  00000-0  42738-4 0  9999","CLASSIFICATION_TYPE":"U","MEAN_ANOMALY":"26.9421","EPOCH":"2021-11-13T13:01:25.465440","PERIAPSIS":"542.792","OBJECT_NAME":"STARLINK-1951","SEMIMAJOR_AXIS":"6925.335","RCS_SIZE":"LARGE","LAUNCH_DATE":"2021-02-04","OBJECT_ID":"2021-009F","MEAN_MOTION":"15.06404561","COUNTRY_CODE":"US","EPHEMERIS_TYPE":"0","MEAN_ELEMENT_THEORY":"SGP4","CENTER_NAME":"EARTH","DECAY_DATE":null,"TIME_SYSTEM":"UTC"},{"TIME_SYSTEM":"UTC","CENTER_NAME":"EARTH","DECAY_DATE":null,"MEAN_MOTION":"15.06394713","COUNTRY_CODE":"US","EPHEMERIS_TYPE":"0","MEAN_ELEMENT_THEORY":"SGP4","OBJECT_ID":"2021-009G","LAUNCH_DATE":"2021-02-04","SEMIMAJOR_AXIS":"6925.365","RCS_SIZE":"LARGE","OBJECT_NAME":"STARLINK-1953","PERIAPSIS":"543.765","EPOCH":"2021-11-13T21:28:20.936064","MEAN_ANOMALY":"287.2679","TLE_LINE1":"1 47554U 21009G   21317.89468676 -.00000298  00000-0 -10259-5 0  9998","CLASSIFICATION_TYPE":"U","RA_OF_ASC_NODE":"270.1207","ECCENTRICITY":"0.00050030","SITE":"AFETR","FILE":"3214514","REF_FRAME":"TEME","OBJECT_TYPE":"PAYLOAD","MEAN_MOTION_DOT":"-0.00000298","TLE_LINE2":"2 47554  53.0562 270.1207 0005003  72.8857 287.2679 15.06394713 42996","PERIOD":"95.592","ELEMENT_SET_NO":"999","ARG_OF_PERICENTER":"72.8857","GP_ID":"189711882","REV_AT_EPOCH":"4299","BSTAR":"-0.00000102590000","MEAN_MOTION_DDOT":"0.0000000000000","APOAPSIS":"550.695","NORAD_CAT_ID":"47554","INCLINATION":"53.0562"}];
